[{"OBJECT_NAME":"YAOGAN-36 03A","OBJECT_ID":"2022-160A","EPOCH":"2026-03-09T21:08:19.248576","MEAN_MOTION":15.31468155,"ECCENTRICITY":0.00027649,"INCLINATION":34.9999,"RA_OF_ASC_NODE":237.2222,"ARG_OF_PERICENTER":84.1273,"MEAN_ANOMALY":275.9759,"EPHEMERIS_TYPE":0,"CLASSIFICATION_TYPE":"U","NORAD_CAT_ID":54372,"ELEMENT_SET_NO":999,"REV_AT_EPOCH":18296,"BSTAR":0.00056596392,"MEAN_MOTION_DOT":0.00017652,"MEAN_MOTION_DDOT":0},{"OBJECT_NAME":"STARLINK-34258","OBJECT_ID":"2025-117J","EPOCH":"2026-03-09T07:34:25.709376","MEAN_MOTION":15.3020549,"ECCENTRICITY":3.817e-5,"INCLINATION":53.1622,"RA_OF_ASC_NODE":40.9685,"ARG_OF_PERICENTER":124.9798,"MEAN_ANOMALY":235.1239,"EPHEMERIS_TYPE":0,"CLASSIFICATION_TYPE":"U","NORAD_CAT_ID":64211,"ELEMENT_SET_NO":999,"REV_AT_EPOCH":4447,"BSTAR":0.00096847256,"MEAN_MOTION_DOT":0.00028439,"MEAN_MOTION_DDOT":0}]
